COMMENT,ORIGINATOR,NORAD_CAT_ID,OBJECT_NAME,OBJECT_TYPE,CLASSIFICATION_TYPE,INTLDES,EPOCH,EPOCH_MICROSECONDS,MEAN_MOTION,ECCENTRICITY,INCLINATION,RA_OF_ASC_NODE,ARG_OF_PERICENTER,MEAN_ANOMALY,EPHEMERIS_TYPE,ELEMENT_SET_NO,REV_AT_EPOCH,BSTAR,MEAN_MOTION_DOT,MEAN_MOTION_DDOT,FILE,TLE_LINE0,TLE_LINE1,TLE_LINE2,OBJECT_ID,OBJECT_NUMBER,SEMIMAJOR_AXIS,PERIOD,APOGEE,PERIGEE,DECAYED
GENERATED VIA SPACETRACK.ORG API,18 SPCS,50803,STARLINK-3321,PAYLOAD,U,22001A,2023-07-09 12:40:53,663232,15.08832255,9.73e-05,53.2161,222.2998,93.182,266.9284,0,999,8461,3.591e-05,2.84e-06,0.0,3953564,0 STARLINK-3321,1 50803U 22001A   23190.52839888  .00000284  00000-0  35910-4 0  9993,2 50803  53.2161 222.2998 0000973  93.1820 266.9284 15.08832255 84617,2022-001A,50803,6917.904,95.438,540.442,539.096,1
GENERATED VIA SPACETRACK.ORG API,18 SPCS,50803,STARLINK-3321,PAYLOAD,U,22001A,2023-07-10 18:53:13,174656,15.08838385,9.63e-05,53.216,216.6497,85.8768,274.2334,0,999,8480,7.1833e-05,8.56e-06,0.0,3954659,0 STARLINK-3321,1 50803U 22001A   23191.78695804  .00000856  00000-0  71833-4 0  9999,2 50803  53.2160 216.6497 0000963  85.8768 274.2334 15.08838385 84804,2022-001A,50803,6917.885,95.438,540.417,539.084,1
GENERATED VIA SPACETRACK.ORG API,18 SPCS,50803,STARLINK-3321,PAYLOAD,U,22001A,2023-07-12 10:37:50,985408,15.08849724,9.48e-05,53.2155,209.2144,83.9737,276.1363,0,999,8505,0.00015835,2.234e-05,0.0,3955984,0 STARLINK-3321,1 50803U 22001A   23193.44295122  .00002234  00000-0  15835-3 0  9994,2 50803  53.2155 209.2144 0000948  83.9737 276.1363 15.08849724 85053,2022-001A,50803,6917.851,95.437,540.371,539.06,1
GENERATED VIA SPACETRACK.ORG API,18 SPCS,50803,STARLINK-3321,PAYLOAD,U,22001A,2023-07-13 07:17:52,227744,15.08841977,9.7e-05,53.2153,205.3478,89.2347,270.8756,0,999,8518,3.2841e-05,2.35e-06,0.0,3956652,0 STARLINK-3321,1 50803U 22001A   23194.30407671  .00000235  00000-0  32841-4 0  9990,2 50803  53.2153 205.3478 0000970  89.2347 270.8756 15.08841977 85182,2022-001A,50803,6917.874,95.437,540.41,539.068,1
GENERATED VIA SPACETRACK.ORG API,18 SPCS,50803,STARLINK-3321,PAYLOAD,U,22001A,2023-07-15 00:37:53,806944,15.08837127,9.72e-05,53.2157,197.6168,87.8223,272.2881,0,999,8544,6.7579e-05,7.88e-06,0.0,3958121,0 STARLINK-3321,1 50803U 22001A   23196.02631721  .00000788  00000-0  67579-4 0  9995,2 50803  53.2157 197.6168 0000972  87.8223 272.2881 15.08837127 85440,2022-001A,50803,6917.889,95.438,540.427,539.082,1
GENERATED VIA SPACETRACK.ORG API,18 SPCS,50803,STARLINK-3321,PAYLOAD,U,22001A,2023-07-16 06:50:13,611264,15.08837742,0.0001027,53.2158,191.9673,87.14,272.971,0,999,8563,4.259e-05,3.9e-06,0.0,3959303,0 STARLINK-3321,1 50803U 22001A   23197.28487976  .00000390  00000-0  42590-4 0  9990,2 50803  53.2158 191.9673 0001027  87.1400 272.9710 15.08837742 85633,2022-001A,50803,6917.887,95.438,540.463,539.042,1
GENERATED VIA SPACETRACK.ORG API,18 SPCS,50803,STARLINK-3321,PAYLOAD,U,22001A,2023-07-17 16:13:19,646112,15.08837778,0.0001031,53.2157,185.7232,88.9443,271.1667,0,999,8584,6.5657e-05,7.57e-06,0.0,3960450,0 STARLINK-3321,1 50803U 22001A   23198.67592183  .00000757  00000-0  65657-4 0  9997,2 50803  53.2157 185.7232 0001031  88.9443 271.1667 15.08837778 85849,2022-001A,50803,6917.887,95.438,540.465,539.039,1
GENERATED VIA SPACETRACK.ORG API,18 SPCS,50803,STARLINK-3321,PAYLOAD,U,22001A,2023-07-18 22:25:39,411552,15.08836867,0.0001013,53.2153,180.0729,89.0086,271.1022,0,999,8603,3.9818e-05,3.46e-06,0.0,3961590,0 STARLINK-3321,1 50803U 22001A   23199.93448393  .00000346  00000-0  39818-4 0  9994,2 50803  53.2153 180.0729 0001013  89.0086 271.1022 15.08836867 86034,2022-001A,50803,6917.89,95.438,540.456,539.054,1
GENERATED VIA SPACETRACK.ORG API,18 SPCS,50803,STARLINK-3321,PAYLOAD,U,22001A,2023-07-21 07:39:32,332608,15.08840067,0.0001261,53.2167,169.3664,80.4195,279.694,0,999,8639,4.7604e-05,4.7e-06,0.0,3963370,0 STARLINK-3321,1 50803U 22001A   23202.31912422  .00000470  00000-0  47604-4 0  9990,2 50803  53.2167 169.3664 0001261  80.4195 279.6940 15.08840067 86396,2022-001A,50803,6917.88,95.438,540.618,538.873,1
GENERATED VIA SPACETRACK.ORG API,18 SPCS,50803,STARLINK-3321,PAYLOAD,U,22001A,2023-07-24 05:36:31,587552,15.08802447,0.0001433,53.2163,156.2831,104.8588,255.2563,0,999,8556,0.00048815,7.482e-05,0.0,3963756,0 STARLINK-3321,1 50803U 22001A   23205.23369893  .00007482  00000-0  48815-3 0  9996,2 50803  53.2163 156.2831 0001433 104.8588 255.2563 15.08802447 85560,2022-001A,50803,6917.995,95.44,540.852,538.869,1
GENERATED VIA SPACETRACK.ORG API,18 SPCS,50803,STARLINK-3321,PAYLOAD,U,22001A,2023-07-25 07:02:41,242560,15.08838934,0.0001145,53.2171,151.5251,97.4942,262.618,0,999,8572,3.2855e-05,2.35e-06,0.0,3963759,0 STARLINK-3321,1 50803U 22001A   23206.29353290  .00000235  00000-0  32855-4 0  9994,2 50803  53.2171 151.5251 0001145  97.4942 262.6180 15.08838934 85729,2022-001A,50803,6917.884,95.438,540.541,538.957,1
GENERATED VIA SPACETRACK.ORG API,18 SPCS,50803,STARLINK-3321,PAYLOAD,U,22001A,2023-07-26 03:42:41,666688,15.08844105,0.0001017,53.2162,147.6596,91.616,268.4949,0,999,8585,0.00010973,1.459e-05,0.0,3963761,0 STARLINK-3321,1 50803U 22001A   23207.15464892  .00001459  00000-0  10973-3 0  9996,2 50803  53.2162 147.6596 0001017  91.6160 268.4949 15.08844105 85851,2022-001A,50803,6917.868,95.437,540.436,539.029,1
GENERATED VIA SPACETRACK.ORG API,18 SPCS,50803,STARLINK-3321,PAYLOAD,U,22001A,2023-07-27 01:58:05,46240,15.0884991,0.0001039,53.2162,143.4969,92.4495,267.6616,0,999,8726,0.00014183,1.971e-05,0.0,3964033,0 STARLINK-3321,1 50803U 22001A   23208.08200285  .00001971  00000-0  14183-3 0  9999,2 50803  53.2162 143.4969 0001039  92.4495 267.6616 15.08849910 87261,2022-001A,50803,6917.85,95.437,540.434,538.996,1
GENERATED VIA SPACETRACK.ORG API,18 SPCS,50803,STARLINK-3321,PAYLOAD,U,22001A,2023-07-27 13:05:46,237920,15.08857394,0.00011,53.2165,141.4152,89.5086,270.6033,0,999,8606,0.00019286,2.784e-05,0.0,3964647,0 STARLINK-3321,1 50803U 22001A   23208.54567405  .00002784  00000-0  19286-3 0  9992,2 50803  53.2165 141.4152 0001100  89.5086 270.6033 15.08857394 86067,2022-001A,50803,6917.827,95.436,540.453,538.931,1
GENERATED VIA SPACETRACK.ORG API,18 SPCS,50803,STARLINK-3321,PAYLOAD,U,22001A,2023-07-27 19:27:21,208896,15.08832379,0.0001897,53.2159,140.2304,65.6316,294.4874,0,999,8737,1.331e-05,-7.6e-07,0.0,3964672,0 STARLINK-3321,1 50803U 22001A   23208.81066214 -.00000076  00000-0  13310-4 0  9990,2 50803  53.2159 140.2304 0001897  65.6316 294.4874 15.08832379 87378,2022-001A,50803,6917.904,95.438,541.081,538.456,1
GENERATED VIA SPACETRACK.ORG API,18 SPCS,50803,STARLINK-3321,PAYLOAD,U,22001A,2023-07-27 19:27:21,208896,15.08832379,0.0001897,53.2159,140.2304,65.6316,294.4874,0,999,8610,1.331e-05,-7.6e-07,0.0,3964919,0 STARLINK-3321,1 50803U 22001A   23208.81066214 -.00000076  00000-0  13310-4 0  9990,2 50803  53.2159 140.2304 0001897  65.6316 294.4874 15.08832379 86108,2022-001A,50803,6917.904,95.438,541.081,538.456,1
GENERATED VIA SPACETRACK.ORG API,18 SPCS,50803,STARLINK-3321,PAYLOAD,U,22001A,2023-07-28 12:56:35,325600,15.08838506,0.0001198,53.2175,136.9555,83.9853,276.1275,0,999,8621,9.6254e-06,-1.35e-06,0.0,3965518,0 STARLINK-3321,1 50803U 22001A   23209.53929775 -.00000135  00000-0  96254-5 0  9995,2 50803  53.2175 136.9555 0001198  83.9853 276.1275 15.08838506 86211,2022-001A,50803,6917.885,95.438,540.579,538.921,1
GENERATED VIA SPACETRACK.ORG API,18 SPCS,50803,STARLINK-3321,PAYLOAD,U,22001A,2023-07-28 19:18:07,514496,15.08846384,0.0001175,53.2171,135.7662,81.729,278.3836,0,999,8752,3.7747e-06,-2.28e-06,0.0,3965573,0 STARLINK-3321,1 50803U 22001A   23209.80425364 -.00000228  00000-0  37747-5 0  9995,2 50803  53.2171 135.7662 0001175  81.7290 278.3836 15.08846384 87524,2022-001A,50803,6917.861,95.437,540.539,538.913,1
GENERATED VIA SPACETRACK.ORG API,18 SPCS,50803,STARLINK-3321,PAYLOAD,U,22001A,2023-07-29 19:08:54,881088,15.08839082,0.0001244,53.2161,131.3048,79.9364,280.1768,0,999,8767,0.00018217,2.612e-05,0.0,3966449,0 STARLINK-3321,1 50803U 22001A   23210.79785742  .00002612  00000-0  18217-3 0  9991,2 50803  53.2161 131.3048 0001244  79.9364 280.1768 15.08839082 87679,2022-001A,50803,6917.883,95.438,540.609,538.888,1
GENERATED VIA SPACETRACK.ORG API,18 SPCS,50803,STARLINK-3321,PAYLOAD,U,22001A,2023-07-31 01:21:13,971744,15.08846466,0.0001184,53.217,125.6567,95.9762,264.1365,0,999,8786,4.4355e-05,4.18e-06,0.0,3967541,0 STARLINK-3321,1 50803U 22001A   23212.05641171  .00000418  00000-0  44355-4 0  9994,2 50803  53.2170 125.6567 0001184  95.9762 264.1365 15.08846466 87864,2022-001A,50803,6917.861,95.437,540.545,538.907,1
GENERATED VIA SPACETRACK.ORG API,18 SPCS,50803,STARLINK-3321,PAYLOAD,U,22001A,2023-07-31 23:36:38,685312,15.08830274,0.0001237,53.2174,121.4947,104.3031,255.8099,0,999,8800,-8.8781e-05,-1.7e-05,0.0,3968472,0 STARLINK-3321,1 50803U 22001A   23212.98378108 -.00001700  00000-0 -88781-4 0  9991,2 50803  53.2174 121.4947 0001237 104.3031 255.8099 15.08830274 88005,2022-001A,50803,6917.91,95.438,540.631,538.919,1
GENERATED VIA SPACETRACK.ORG API,18 SPCS,50803,STARLINK-3321,PAYLOAD,U,22001A,2023-08-02 01:02:49,175808,15.08837686,0.0001186,53.2178,116.7359,103.5211,256.5913,0,999,8816,6.7933e-05,7.93e-06,0.0,3969252,0 STARLINK-3321,1 50803U 22001A   23214.04362472  .00000793  00000-0  67933-4 0  9992,2 50803  53.2178 116.7359 0001186 103.5211 256.5913 15.08837686 88161,2022-001A,50803,6917.887,95.438,540.573,538.932,1
GENERATED VIA SPACETRACK.ORG API,18 SPCS,50803,STARLINK-3321,PAYLOAD,U,22001A,2023-08-02 10:35:07,545120,15.08846217,0.0001112,53.2173,114.9507,89.249,270.863,0,999,8822,8.4067e-05,1.051e-05,0.0,3969863,0 STARLINK-3321,1 50803U 22001A   23214.44105955  .00001051  00000-0  84067-4 0  9992,2 50803  53.2173 114.9507 0001112  89.2490 270.8630 15.08846217 88221,2022-001A,50803,6917.861,95.437,540.496,538.957,1
